STARLINK-6040           
1 56809U 23078AU  26068.88769186 -.00000613  00000+0 -43576-4 0  9993
2 56809  70.0010 343.8081 0002532 263.0396  97.0475 14.98329487152719
NIGHTJAR                
1 60535U 24149BV  26068.64552146  .00004278  00000+0  36344-3 0  9997
2 60535  97.6919 146.7603 0002393  83.3363 276.8132 14.98398810127967
